start=new Date('2022-03-07T00:00:00.000Z').valueOf();
sats=[{"DECAY_DATE":null,"REF_FRAME":"TEME","REV_AT_EPOCH":"1060","EPOCH":"2022-03-06T22:00:00.999936","INCLINATION":"53.2146","LAUNCH_DATE":"2022-01-06","CLASSIFICATION_TYPE":"U","COUNTRY_CODE":"US","PERIAPSIS":"348.118","MEAN_ANOMALY":"260.5517","GP_ID":"198083680","OBJECT_NAME":"STARLINK-3312","CENTER_NAME":"EARTH","TIME_SYSTEM":"UTC","SITE":"AFETR","MEAN_MOTION_DOT":"-0.00062387","NORAD_CAT_ID":"50850","MEAN_MOTION_DDOT":"0.0000000000000","TLE_LINE2":"2 50850  53.2146 266.9282 0002254  24.3015 260.5517 15.73244061 10600","RCS_SIZE":"LARGE","ECCENTRICITY":"0.00022540","FILE":"3348184","OBJECT_TYPE":"PAYLOAD","OBJECT_ID":"2022-001AZ","TLE_LINE1":"1 50850U 22001AZ  22065.91667824 -.00062387  00000-0 -44248-3 0  9994","BSTAR":"-0.00044248000000","RA_OF_ASC_NODE":"266.9282","ARG_OF_PERICENTER":"24.3015","ELEMENT_SET_NO":"999","MEAN_MOTION":"15.73244061","SEMIMAJOR_AXIS":"6727.770","APOAPSIS":"351.151","PERIOD":"91.531","MEAN_ELEMENT_THEORY":"SGP4","EPHEMERIS_TYPE":"0"},{"PERIOD":"93.914","MEAN_ELEMENT_THEORY":"SGP4","EPHEMERIS_TYPE":"0","APOAPSIS":"467.232","SEMIMAJOR_AXIS":"6844.048","ELEMENT_SET_NO":"999","MEAN_MOTION":"15.33321377","ARG_OF_PERICENTER":"34.6232","RA_OF_ASC_NODE":"273.1704","OBJECT_ID":"2022-001BA","OBJECT_TYPE":"PAYLOAD","BSTAR":"-0.02172500000000","TLE_LINE1":"1 50851U 22001BA  22065.58334491 -.00659311  00000-0 -21725-1 0  9991","FILE":"3347638","ECCENTRICITY":"0.00019270","TLE_LINE2":"2 50851  53.2177 273.1704 0001927  34.6232  96.8351 15.33321377  3650","RCS_SIZE":"LARGE","MEAN_MOTION_DDOT":"0.0000000000000","NORAD_CAT_ID":"50851","MEAN_MOTION_DOT":"-0.00659311","CENTER_NAME":"EARTH","OBJECT_NAME":"STARLINK-3314","SITE":"AFETR","TIME_SYSTEM":"UTC","GP_ID":"198068253","PERIAPSIS":"464.594","MEAN_ANOMALY":"96.8351","COUNTRY_CODE":"US","CLASSIFICATION_TYPE":"U","INCLINATION":"53.2177","LAUNCH_DATE":"2022-01-06","EPOCH":"2022-03-06T14:00:01.000224","REF_FRAME":"TEME","REV_AT_EPOCH":"365","DECAY_DATE":null},{"TIME_SYSTEM":"UTC","SITE":"AFETR","CENTER_NAME":"EARTH","OBJECT_NAME":"STARLINK-3366","MEAN_MOTION_DOT":"-0.00005793","MEAN_MOTION_DDOT":"0.0000000000000","NORAD_CAT_ID":"51104","ECCENTRICITY":"0.00031450","FILE":"3347914","RCS_SIZE":"LARGE","TLE_LINE2":"2 51104  53.2171  42.5287 0003145  11.3063  61.7470 15.73212722  8697","RA_OF_ASC_NODE":"42.5287","BSTAR":"-0.00003683100000","TLE_LINE1":"1 51104U 22005A   22065.91667824 -.00005793  00000-0 -36831-4 0  9999","OBJECT_TYPE":"PAYLOAD","OBJECT_ID":"2022-005A","MEAN_MOTION":"15.73212722","ELEMENT_SET_NO":"999","ARG_OF_PERICENTER":"11.3063","SEMIMAJOR_AXIS":"6727.859","EPHEMERIS_TYPE":"0","MEAN_ELEMENT_THEORY":"SGP4","PERIOD":"91.532","APOAPSIS":"351.840","DECAY_DATE":null,"REV_AT_EPOCH":"869","REF_FRAME":"TEME","EPOCH":"2022-03-06T22:00:00.999936","CLASSIFICATION_TYPE":"U","INCLINATION":"53.2171","LAUNCH_DATE":"2022-01-19","MEAN_ANOMALY":"61.7470","PERIAPSIS":"347.608","COUNTRY_CODE":"US","GP_ID":"198077143"},{"MEAN_ELEMENT_THEORY":"SGP4","PERIOD":"91.534","EPHEMERIS_TYPE":"0","APOAPSIS":"352.147","SEMIMAJOR_AXIS":"6727.921","ELEMENT_SET_NO":"999","MEAN_MOTION":"15.73190801","ARG_OF_PERICENTER":"6.6230","RA_OF_ASC_NODE":"44.1901","OBJECT_TYPE":"PAYLOAD","OBJECT_ID":"2022-005B","BSTAR":"-0.00000299650000","TLE_LINE1":"1 51105U 22005B   22065.58334491 -.00001044  00000-0 -29965-5 0  9990","ECCENTRICITY":"0.00035080","FILE":"3347433","TLE_LINE2":"2 51105  53.2164  44.1901 0003508   6.6230 330.6062 15.73190801  8640","RCS_SIZE":"LARGE","MEAN_MOTION_DDOT":"0.0000000000000","NORAD_CAT_ID":"51105","MEAN_MOTION_DOT":"-0.00001044","OBJECT_NAME":"STARLINK-3350","CENTER_NAME":"EARTH","SITE":"AFETR","TIME_SYSTEM":"UTC","GP_ID":"198039529","PERIAPSIS":"347.426","MEAN_ANOMALY":"330.6062","COUNTRY_CODE":"US","CLASSIFICATION_TYPE":"U","INCLINATION":"53.2164","LAUNCH_DATE":"2022-01-19","EPOCH":"2022-03-06T14:00:01.000224","REF_FRAME":"TEME","REV_AT_EPOCH":"864","DECAY_DATE":null},{"TIME_SYSTEM":"UTC","SITE":"AFETR","OBJECT_NAME":"STARLINK-3176","CENTER_NAME":"EARTH","MEAN_MOTION_DOT":"0.00032334","MEAN_MOTION_DDOT":"0.0000000000000","NORAD_CAT_ID":"51106","FILE":"3347638","ECCENTRICITY":"0.00034360","RCS_SIZE":"LARGE","TLE_LINE2":"2 51106  53.2160  44.1840 0003436   6.9530 334.0720 15.73183924  3670","RA_OF_ASC_NODE":"44.1840","TLE_LINE1":"1 51106U 22005C   22065.58334491  .00032334  00000-0  23403-3 0  9994","BSTAR":"0.00023403000000","OBJECT_ID":"2022-005C","OBJECT_TYPE":"PAYLOAD","MEAN_MOTION":"15.73183924","ELEMENT_SET_NO":"999","ARG_OF_PERICENTER":"6.9530","SEMIMAJOR_AXIS":"6727.941","EPHEMERIS_TYPE":"0","MEAN_ELEMENT_THEORY":"SGP4","PERIOD":"91.534","APOAPSIS":"352.118","DECAY_DATE":null,"REV_AT_EPOCH":"367","REF_FRAME":"TEME","EPOCH":"2022-03-06T14:00:01.000224","CLASSIFICATION_TYPE":"U","LAUNCH_DATE":"2022-01-19","INCLINATION":"53.2160","MEAN_ANOMALY":"334.0720","PERIAPSIS":"347.494","COUNTRY_CODE":"US","GP_ID":"198070672"},{"MEAN_ANOMALY":"54.1582","PERIAPSIS":"347.654","COUNTRY_CODE":"US","GP_ID":"198077682","REV_AT_EPOCH":"869","REF_FRAME":"TEME","DECAY_DATE":null,"CLASSIFICATION_TYPE":"U","LAUNCH_DATE":"2022-01-19","INCLINATION":"53.2162","EPOCH":"2022-03-06T22:00:00.999936","MEAN_MOTION":"15.73248598","ELEMENT_SET_NO":"999","ARG_OF_PERICENTER":"11.3566","RA_OF_ASC_NODE":"42.5405","BSTAR":"-0.00045025000000","TLE_LINE1":"1 51107U 22005D   22065.91667824 -.00063484  00000-0 -45025-3 0  9997","OBJECT_ID":"2022-005D","OBJECT_TYPE":"PAYLOAD","EPHEMERIS_TYPE":"0","PERIOD":"91.530","MEAN_ELEMENT_THEORY":"SGP4","APOAPSIS":"351.589","SEMIMAJOR_AXIS":"6727.757","MEAN_MOTION_DOT":"-0.00063484","SITE":"AFETR","TIME_SYSTEM":"UTC","CENTER_NAME":"EARTH","OBJECT_NAME":"STARLINK-3368","ECCENTRICITY":"0.00029240","FILE":"3347916","RCS_SIZE":"LARGE","TLE_LINE2":"2 51107  53.2162  42.5405 0002924  11.3566  54.1582 15.73248598  8694","MEAN_MOTION_DDOT":"0.0000000000000","NORAD_CAT_ID":"51107"},{"EPOCH":"2022-03-06T22:00:00.999936","CLASSIFICATION_TYPE":"U","INCLINATION":"53.2166","LAUNCH_DATE":"2022-01-19","DECAY_DATE":null,"REV_AT_EPOCH":"869","REF_FRAME":"TEME","GP_ID":"198077175","MEAN_ANOMALY":"57.6644","PERIAPSIS":"347.575","COUNTRY_CODE":"US","MEAN_MOTION_DDOT":"0.0000000000000","NORAD_CAT_ID":"51108","FILE":"3347916","ECCENTRICITY":"0.00031650","RCS_SIZE":"LARGE","TLE_LINE2":"2 51108  53.2166  42.5398 0003165   9.0978  57.6644 15.73219402  8698","TIME_SYSTEM":"UTC","SITE":"AFETR","CENTER_NAME":"EARTH","OBJECT_NAME":"STARLINK-3362","MEAN_MOTION_DOT":"-0.00007163","SEMIMAJOR_AXIS":"6727.840","EPHEMERIS_TYPE":"0","MEAN_ELEMENT_THEORY":"SGP4","PERIOD":"91.532","APOAPSIS":"351.834","RA_OF_ASC_NODE":"42.5398","BSTAR":"-0.00004658900000","TLE_LINE1":"1 51108U 22005E   22065.91667824 -.00007163  00000-0 -46589-4 0  9997","OBJECT_TYPE":"PAYLOAD","OBJECT_ID":"2022-005E","MEAN_MOTION":"15.73219402","ELEMENT_SET_NO":"999","ARG_OF_PERICENTER":"9.0978"},{"REV_AT_EPOCH":"870","REF_FRAME":"TEME","DECAY_DATE":null,"LAUNCH_DATE":"2022-01-19","INCLINATION":"53.2170","CLASSIFICATION_TYPE":"U","EPOCH":"2022-03-06T22:00:00.999936","COUNTRY_CODE":"US","MEAN_ANOMALY":"44.5369","PERIAPSIS":"347.790","GP_ID":"198077193","MEAN_MOTION_DOT":"-0.00054488","SITE":"AFETR","TIME_SYSTEM":"UTC","OBJECT_NAME":"STARLINK-3358","CENTER_NAME":"EARTH","RCS_SIZE":"LARGE","TLE_LINE2":"2 51109  53.2170  41.7988 0002722  18.1488  44.5369 15.73248757  8701","ECCENTRICITY":"0.00027220","FILE":"3347917","NORAD_CAT_ID":"51109","MEAN_MOTION_DDOT":"0.0000000000000","ARG_OF_PERICENTER":"18.1488","MEAN_MOTION":"15.73248757","ELEMENT_SET_NO":"999","TLE_LINE1":"1 51109U 22005F   22065.91667824 -.00054488  00000-0 -38542-3 0  9999","BSTAR":"-0.00038542000000","OBJECT_ID":"2022-005F","OBJECT_TYPE":"PAYLOAD","RA_OF_ASC_NODE":"41.7988","APOAPSIS":"351.452","EPHEMERIS_TYPE":"0","MEAN_ELEMENT_THEORY":"SGP4","PERIOD":"91.530","SEMIMAJOR_AXIS":"6727.756"},{"APOAPSIS":"352.103","PERIOD":"91.533","MEAN_ELEMENT_THEORY":"SGP4","EPHEMERIS_TYPE":"0","SEMIMAJOR_AXIS":"6727.895","ARG_OF_PERICENTER":"3.6709","ELEMENT_SET_NO":"999","MEAN_MOTION":"15.73200027","OBJECT_TYPE":"PAYLOAD","OBJECT_ID":"2022-005G","TLE_LINE1":"1 51110U 22005G   22065.58334491  .00035764  00000-0  25810-3 0  9993","BSTAR":"0.00025810000000","RA_OF_ASC_NODE":"44.1871","TLE_LINE2":"2 51110  53.2163  44.1871 0003482   3.6709 335.4400 15.73200027  8641","RCS_SIZE":"LARGE","FILE":"3347411","ECCENTRICITY":"0.00034820","NORAD_CAT_ID":"51110","MEAN_MOTION_DDOT":"0.0000000000000","MEAN_MOTION_DOT":"0.00035764","CENTER_NAME":"EARTH","OBJECT_NAME":"STARLINK-3344","SITE":"AFETR","TIME_SYSTEM":"UTC","GP_ID":"198040056","COUNTRY_CODE":"US","PERIAPSIS":"347.417","MEAN_ANOMALY":"335.4400","LAUNCH_DATE":"2022-01-19","INCLINATION":"53.2163","CLASSIFICATION_TYPE":"U","EPOCH":"2022-03-06T14:00:01.000224","REF_FRAME":"TEME","REV_AT_EPOCH":"864","DECAY_DATE":null},{"OBJECT_NAME":"STARLINK-3173","CENTER_NAME":"EARTH","TIME_SYSTEM":"UTC","SITE":"AFETR","MEAN_MOTION_DOT":"-0.00012553","NORAD_CAT_ID":"51111","MEAN_MOTION_DDOT":"0.0000000000000","TLE_LINE2":"2 51111  53.2163  42.5270 0003486   9.7321  62.6983 15.73214840  8696","RCS_SIZE":"LARGE","ECCENTRICITY":"0.00034860","FILE":"3347919","OBJECT_ID":"2022-005H","OBJECT_TYPE":"PAYLOAD","BSTAR":"-0.00008504300000","TLE_LINE1":"1 51111U 22005H   22065.91667824 -.00012553  00000-0 -85043-4 0  9998","RA_OF_ASC_NODE":"42.5270","ARG_OF_PERICENTER":"9.7321","ELEMENT_SET_NO":"999","MEAN_MOTION":"15.73214840","SEMIMAJOR_AXIS":"6727.853","APOAPSIS":"352.063","PERIOD":"91.532","MEAN_ELEMENT_THEORY":"SGP4","EPHEMERIS_TYPE":"0","DECAY_DATE":null,"REF_FRAME":"TEME","REV_AT_EPOCH":"869","EPOCH":"2022-03-06T22:00:00.999936","INCLINATION":"53.2163","LAUNCH_DATE":"2022-01-19","CLASSIFICATION_TYPE":"U","COUNTRY_CODE":"US","PERIAPSIS":"347.373","MEAN_ANOMALY":"62.6983","GP_ID":"198077224"}];
